NORAD_CAT_ID,OBJECT_NAME,OBJECT_TYPE,EPOCH,MEAN_MOTION,ECCENTRICITY,INCLINATION,RA_OF_ASC_NODE,ARG_OF_PERICENTER,MEAN_ANOMALY,BSTAR,MEAN_MOTION_DOT,MEAN_MOTION_DDOT,TLE_LINE0,TLE_LINE1,TLE_LINE2,SEMIMAJOR_AXIS,PERIOD,APOGEE,PERIGEE,DECAYED
52626.0,STARLINK-3990,PAYLOAD,2023-09-14 17:05:51,15.08824342,0.0001432,53.2202,20.7014,90.0444,270.0712,-0.0001523,-2.71e-05,0.0,0 STARLINK-3990,1 52626U 22052AE  23257.71239936 -.00002710  00000-0 -15230-3 0  9997,2 52626  53.2202  20.7014 0001432  90.0444 270.0712 15.08824342 74447,6917.928,95.439,540.784,538.803,0.0
52626.0,STARLINK-3990,PAYLOAD,2023-09-15 01:02:46,15.08829595,0.0001449,53.2204,19.2162,94.3696,265.7461,-2.6887e-05,-7.16e-06,0.0,0 STARLINK-3990,1 52626U 22052AE  23258.04359547 -.00000716  00000-0 -26887-4 0  9990,2 52626  53.2204  19.2162 0001449  94.3696 265.7461 15.08829595 74492,6917.912,95.438,540.78,538.775,0.0
52626.0,STARLINK-3990,PAYLOAD,2023-09-15 13:45:50,15.08847759,0.0001395,53.2198,16.8351,85.4268,274.6883,0.00012515,1.705e-05,0.0,0 STARLINK-3990,1 52626U 22052AE  23258.57350304  .00001705  00000-0  12515-3 0  9999,2 52626  53.2198  16.8351 0001395  85.4268 274.6883 15.08847759 74199,6917.857,95.437,540.687,538.757,0.0
52626.0,STARLINK-3990,PAYLOAD,2023-09-15 16:56:37,15.08850385,0.0001422,53.2194,16.2408,75.7462,284.3688,0.00030646,4.594e-05,0.0,0 STARLINK-3990,1 52626U 22052AE  23258.70598434  .00004594  00000-0  30646-3 0  9996,2 52626  53.2194  16.2408 0001422  75.7462 284.3688 15.08850385 74595,6917.849,95.437,540.697,538.73,0.0
52626.0,STARLINK-3990,PAYLOAD,2023-09-16 00:53:33,15.08839437,0.0001505,53.2189,14.7532,81.3941,278.7222,0.00025651,3.797e-05,0.0,0 STARLINK-3990,1 52626U 22052AE  23259.03719193  .00003797  00000-0  25651-3 0  9994,2 52626  53.2189  14.7532 0001505  81.3941 278.7222 15.08839437 74649,6917.882,95.438,540.788,538.706,0.0
52626.0,STARLINK-3990,PAYLOAD,2023-09-16 13:36:38,15.08840537,0.0001539,53.2194,12.3758,78.2309,281.8856,0.00025665,3.799e-05,0.0,0 STARLINK-3990,1 52626U 22052AE  23259.56711328  .00003799  00000-0  25665-3 0  9991,2 52626  53.2194  12.3758 0001539  78.2309 281.8856 15.08840537 74347,6917.879,95.438,540.808,538.679,0.0
52626.0,STARLINK-3990,PAYLOAD,2023-09-17 13:27:25,15.08851044,0.000136,53.2184,7.9172,71.077,289.037,8.3041e-05,1.034e-05,0.0,0 STARLINK-3990,1 52626U 22052AE  23260.56070791  .00001034  00000-0  83041-4 0  9998,2 52626  53.2184   7.9172 0001360  71.0770 289.0370 15.08851044 74493,6917.847,95.437,540.652,538.771,0.0
52626.0,STARLINK-3990,PAYLOAD,2023-09-17 16:38:11,15.08857543,0.000124,53.218,7.321,78.0023,282.1108,0.00032213,4.845e-05,0.0,0 STARLINK-3990,1 52626U 22052AE  23260.69318434  .00004845  00000-0  32213-3 0  9998,2 52626  53.2180   7.3210 0001240  78.0023 282.1108 15.08857543 74898,6917.827,95.436,540.55,538.834,0.0
52626.0,STARLINK-3990,PAYLOAD,2023-09-18 06:56:39,15.0884145,0.000108,53.2186,4.6446,86.5138,273.5978,0.00017769,2.541e-05,0.0,0 STARLINK-3990,1 52626U 22052AE  23261.28935096  .00002541  00000-0  17769-3 0  9993,2 52626  53.2186   4.6446 0001080  86.5138 273.5978 15.08841450 74987,6917.876,95.437,540.488,538.994,0.0
52626.0,STARLINK-3990,PAYLOAD,2023-09-18 13:18:12,15.08849796,0.0001526,53.2184,3.4565,71.5895,288.5263,0.00027718,4.127e-05,0.0,0 STARLINK-3990,1 52626U 22052AE  23261.55430908  .00004127  00000-0  27718-3 0  9992,2 52626  53.2184   3.4565 0001526  71.5895 288.5263 15.08849796 74640,6917.85,95.437,540.771,538.66,0.0
52626.0,STARLINK-3990,PAYLOAD,2023-09-18 14:53:35,15.08853983,0.0001426,53.2184,3.1582,81.392,278.7234,0.00040265,6.128e-05,0.0,0 STARLINK-3990,1 52626U 22052AE  23261.62054732  .00006128  00000-0  40265-3 0  9992,2 52626  53.2184   3.1582 0001426  81.3920 278.7234 15.08853983 75039,6917.838,95.437,540.689,538.716,0.0
52626.0,STARLINK-3990,PAYLOAD,2023-09-19 09:58:12,15.0885559,0.0001478,53.2174,359.59,96.2788,263.8373,0.00034603,5.226e-05,0.0,0 STARLINK-3990,1 52626U 22052AE  23262.41542278  .00005226  00000-0  34603-3 0  9994,2 52626  53.2174 359.5900 0001478  96.2788 263.8373 15.08855590 75152,6917.833,95.437,540.72,538.675,0.0
52626.0,STARLINK-3990,PAYLOAD,2023-09-19 14:44:21,15.08866174,0.0001547,53.2182,358.6965,105.9685,254.1477,0.0005588,8.623e-05,0.0,0 STARLINK-3990,1 52626U 22052AE  23262.61413734  .00008623  00000-0  55880-3 0  9994,2 52626  53.2182 358.6965 0001547 105.9685 254.1477 15.08866174 75184,6917.8,95.436,540.736,538.595,0.0
52626.0,STARLINK-3990,PAYLOAD,2023-09-20 09:49:00,15.08829964,0.0002885,53.2178,355.1209,137.2504,222.8713,-0.0001266,-2.302e-05,0.0,0 STARLINK-3990,1 52626U 22052AE  23263.40902931 -.00002302  00000-0 -12660-3 0  9993,2 52626  53.2178 355.1209 0002885 137.2504 222.8713 15.08829964 75301,6917.911,95.438,541.772,537.78,0.0
52626.0,STARLINK-3990,PAYLOAD,2023-09-20 12:59:47,15.08819854,0.000149,53.2187,354.5374,73.3251,286.7905,-0.00026401,-4.485e-05,0.0,0 STARLINK-3990,1 52626U 22052AE  23263.54151818 -.00004485  00000-0 -26401-3 0  9990,2 52626  53.2187 354.5374 0001490  73.3251 286.7905 15.08819854 74945,6917.942,95.439,540.838,538.776,0.0
52626.0,STARLINK-3990,PAYLOAD,2023-09-20 14:35:10,15.08821846,0.000145,53.2184,354.2387,74.6293,285.4859,-0.00020848,-3.603e-05,0.0,0 STARLINK-3990,1 52626U 22052AE  23263.60775933 -.00003603  00000-0 -20848-3 0  9997,2 52626  53.2184 354.2387 0001450  74.6293 285.4859 15.08821846 75331,6917.936,95.439,540.804,538.798,0.0
52626.0,STARLINK-3990,PAYLOAD,2023-09-21 09:39:48,15.08846851,0.0001403,53.2181,350.6693,67.1159,292.9981,0.00090282,0.00014112,0.0,0 STARLINK-3990,1 52626U 22052AE  23264.40264107  .00014112  00000-0  90282-3 0  9996,2 52626  53.2181 350.6693 0001403  67.1159 292.9981 15.08846851 75459,6917.859,95.437,540.695,538.754,0.0
52626.0,STARLINK-3990,PAYLOAD,2023-09-21 12:50:34,15.08855849,0.0001465,53.2182,350.0759,66.3362,293.7784,0.0011536,0.00018127,0.0,0 STARLINK-3990,1 52626U 22052AE  23264.53512002  .00018127  00000-0  11536-2 0  9994,2 52626  53.2182 350.0759 0001465  66.3362 293.7784 15.08855849 75099,6917.832,95.437,540.71,538.683,0.0
52626.0,STARLINK-3990,PAYLOAD,2023-09-21 14:25:57,15.08861125,0.0001495,53.218,349.7766,64.3943,295.7204,0.0012485,0.00019649,0.0,0 STARLINK-3990,1 52626U 22052AE  23264.60135873  .00019649  00000-0  12485-2 0  9993,2 52626  53.2180 349.7766 0001495  64.3943 295.7204 15.08861125 75101,6917.816,95.436,540.715,538.647,0.0
52626.0,STARLINK-3990,PAYLOAD,2023-09-21 22:22:52,15.08853294,0.0001553,53.2189,348.2874,71.232,288.884,0.00052112,8.018e-05,0.0,0 STARLINK-3990,1 52626U 22052AE  23264.93255759  .00008018  00000-0  52112-3 0  9995,2 52626  53.2189 348.2874 0001553  71.2320 288.8840 15.08853294 75539,6917.84,95.437,540.779,538.63,0.0
52626.0,STARLINK-3990,PAYLOAD,2023-09-22 12:41:20,15.08858224,0.0001543,53.2179,345.6158,69.5568,290.559,0.0011231,0.0001764,0.0,0 STARLINK-3990,1 52626U 22052AE  23265.52871487  .00017640  00000-0  11231-2 0  9990,2 52626  53.2179 345.6158 0001543  69.5568 290.5590 15.08858224 75245,6917.825,95.436,540.757,538.622,0.0
52626.0,STARLINK-3990,PAYLOAD,2023-09-22 14:16:44,15.08860252,0.0001658,53.2179,345.3183,66.3006,293.8159,0.0011751,0.00018474,0.0,0 STARLINK-3990,1 52626U 22052AE  23265.59495437  .00018474  00000-0  11751-2 0  9997,2 52626  53.2179 345.3183 0001658  66.3006 293.8159 15.08860252 75251,6917.818,95.436,540.83,538.537,0.0
52626.0,STARLINK-3990,PAYLOAD,2023-09-22 22:13:39,15.08857961,0.0001269,53.2173,343.8286,74.1816,285.9316,0.0011138,0.00017491,0.0,0 STARLINK-3990,1 52626U 22052AE  23265.92615245  .00017491  00000-0  11138-2 0  9992,2 52626  53.2173 343.8286 0001269  74.1816 285.9316 15.08857961 75683,6917.825,95.436,540.568,538.813,0.0
52626.0,STARLINK-3990,PAYLOAD,2023-09-23 10:56:44,15.08846443,0.0001863,53.2176,341.451,79.7832,280.337,0.00068249,0.00010592,0.0,0 STARLINK-3990,1 52626U 22052AE  23266.45607373  .00010592  00000-0  68249-3 0  9995,2 52626  53.2176 341.4510 0001863  79.7832 280.3370 15.08846443 75760,6917.861,95.437,541.014,538.437,0.0
52626.0,STARLINK-3990,PAYLOAD,2023-09-23 22:04:26,15.08841479,0.0001573,53.2177,339.3695,87.486,272.6312,0.00018099,2.594e-05,0.0,0 STARLINK-3990,1 52626U 22052AE  23266.91975287  .00002594  00000-0  18099-3 0  9999,2 52626  53.2177 339.3695 0001573  87.4860 272.6312 15.08841479 75838,6917.876,95.437,540.829,538.653,0.0
52626.0,STARLINK-3990,PAYLOAD,2023-09-24 12:22:54,15.08843997,0.0001549,53.2175,336.6932,87.1451,272.9718,5.6752e-05,6.15e-06,0.0,0 STARLINK-3990,1 52626U 22052AE  23267.51591418  .00000615  00000-0  56752-4 0  9997,2 52626  53.2175 336.6932 0001549  87.1451 272.9718 15.08843997 75544,6917.868,95.437,540.805,538.662,0.0
52626.0,STARLINK-3990,PAYLOAD,2023-09-25 10:38:19,15.08842101,0.0001387,53.2166,332.5293,85.1489,274.9661,0.00015715,2.214e-05,0.0,0 STARLINK-3990,1 52626U 22052AE  23268.44327649  .00002214  00000-0  15715-3 0  9993,2 52626  53.2166 332.5293 0001387  85.1489 274.9661 15.08842101 76061,6917.874,95.437,540.698,538.779,0.0
52626.0,STARLINK-3990,PAYLOAD,2023-09-26 10:29:06,15.0884554,0.0001427,53.2166,328.0695,88.5523,271.5632,-7.9687e-05,-1.556e-05,0.0,0 STARLINK-3990,1 52626U 22052AE  23269.43687720 -.00001556  00000-0 -79687-4 0  9991,2 52626  53.2166 328.0695 0001427  88.5523 271.5632 15.08845540 75833,6917.863,95.437,540.716,538.741,0.0
52626.0,STARLINK-3990,PAYLOAD,2023-09-26 23:12:11,15.08842954,0.0001421,53.216,325.6903,88.366,271.7495,0.00015908,2.245e-05,0.0,0 STARLINK-3990,1 52626U 22052AE  23269.96679923  .00002245  00000-0  15908-3 0  9994,2 52626  53.2160 325.6903 0001421  88.3660 271.7495 15.08842954 76292,6917.871,95.437,540.719,538.753,0.0
52626.0,STARLINK-3990,PAYLOAD,2023-09-27 10:19:53,15.08845584,0.0001543,53.2164,323.6109,88.5582,271.5587,0.00021972,3.211e-05,0.0,0 STARLINK-3990,1 52626U 22052AE  23270.43047817  .00003211  00000-0  21972-3 0  9991,2 52626  53.2164 323.6109 0001543  88.5582 271.5587 15.08845584 75989,6917.863,95.437,540.796,538.661,0.0
